IRIDIUM 171             
1 43929U 19002H   25345.48401428  .00000345  00000+0  11606-3 0  9997
2 43929  86.3970  72.3277 0002308 100.6933 259.4522 14.34219820362054
IRIDIUM 170             
1 43930U 19002J   25345.30243546  .00001844  00000+0  28850-3 0  9999
2 43930  86.6087  72.1166 0002261  90.9222 269.2254 14.72258152371619
IRIDIUM 167             
1 43931U 19002K   25345.47767357  .00000195  00000+0  62415-4 0  9993
2 43931  86.3966  72.0657 0002383 106.7226 253.4231 14.34218152362054
IRIDIUM 181             
1 56726U 23068S   25345.50112000  .00000720  00000+0  20795-3 0  9997
2 56726  86.4510 135.2428 0002435  85.8721 274.2758 14.43304951135369
IRIDIUM 177             
1 56727U 23068T   25345.52529230  .00002313  00000+0  30099-3 0  9995
2 56727  86.1966  57.9066 0002251  81.7191 278.4285 14.80223140138604
IRIDIUM 174             
1 56728U 23068U   25345.49397101  .00000984  00000+0  15211-3 0  9993
2 56728  86.6102  72.1656 0002141  89.4045 270.7417 14.72253496138405
IRIDIUM 178             
1 56729U 23068V   25345.58202330  .00002534  00000+0  32994-3 0  9993
2 56729  86.6536 103.7825 0002490  99.2853 260.8650 14.80242337138612
IRIDIUM 179             
1 56730U 23068W   25345.64424546  .00002560  00000+0  33341-3 0  9993
2 56730  86.6775 112.1761 0002525  92.9506 267.2005 14.80241609138623
